BillingCity;BillingCountry;BillingPostalCode;BillingState;BillingStreet;CEP__c;Codigo_do_Cliente_SAP__c;CodigoClienteSAPRecebedor_DFV__c;Inscricao_Estadual__c;Inscricao_Municipal__c;Inscricao_SUFRAMA__c;Inscricao_INSS_CEI__c;RNE__c;UFCapex__c;Data_abertura_empresa__c;Data_Expedicao_RNE__c;Status_da_Conta__c;Caldeira__c;Corporativo__c;Cozinha_Industrial__c;Ecodriyer__c;Forno__c;Gerador_Eletrico__c;Key_Account__c;Orgao_Publico__c;SMG__c;TPC__c;Usina_de_Asfalto__c;Venda_Spot__c;Condicao_de_Pagamento__c;Escritorio_de_Vendas2__c;Grupo_Clientes2__c;Grupo_de_Contas2__c;Subsegmento__c;Estabelecimento_Unidade_de_Negocio_SHV__c;Consultor_Remunerado_pela_Prospec_o__c;OwnerId;Vendedor_VI__c;Name;Latitude__c;Longitude__c;Mesorregiao__c;BairroCapex__c;Cidade_Satelite__c;Complemento2__c;Nome_Fantasia_Apelido__c;Condicoes_de_abastecimento__c;Rua_n__c;Mes_de_Reajuste__c;Cidade__c;Pais__c;Regiao__c;Numero_do_Documento__c;Numero__c;Codigo_Parceiro_Negocio__c;RecordTypeId;Segmento__c;ShippingCity;ShippingCountry;ShippingPostalCode;ShippingState;ShippingStreet;Tipo__c;Ativacao_de_cliente__c;Inativacao_de_cliente__c;Dados_Adicionais__c;Politica_de_Relacionamento__c;Volume_Potencial__c;Phone;Email__c
SAO LUIS;BR;65074-115;MA;AV DANIEL DE LA TOUCHE SALA 29 987 COHAMA UNICO LJ 308 B;65074-115;0003992192;;127277986;ISENTO;;00000000000000000000;;MA;;;Ativo;false;false;false;false;false;false;false;false;false;false;false;false;a0nF000000P34isIAB;a0xF000001OjABcIAN;a15F0000003QQaaIAG;a17F000000R17A6IAJ;a0CF000000OdDwCMAV;a0BA000000BkujGMAR;005F0000001wSoaIAE;005F0000001wSoaIAE;;SAO LUIS GRILL SOCIEDADE UNIPESSOAL;;;;COHAMA;;UNICO LJ 308 B;SAL E BRASA GRILL EXPRESS;;AV DANIEL DE LA TOUCHE SALA 29;12 DEZEMBRO;SAO LUIS;BR;;43734936000159;987;10428265.00;0121Y000001J66IQAS;a0AA0000005k9HBMAY;SAO LUIS;BR;65074-115;MA;AV DANIEL DE LA TOUCHE SALA 29 987 COHAMA UNICO LJ 308 B;Pessoa Jurídica;;;;;0;(98)98434-3967;SAOLUISGRILL@GMAIL.COM
BRASILIA;BR;72015-901;DF;CSB 02 LOTES 01 04  TAGUATINGA CENTRO TAGUATINGA PM21;72015-901;0003992348;;0817493500125;ISENTO;;00000000000000000000;;DF;;;Ativo;false;false;false;false;false;false;false;false;false;false;false;false;a0nF000000P34isIAB;a0xF000001OjABMIA3;a15F0000003QQaaIAG;a17F000000R17A6IAJ;a0CF000000OdDwCMAV;a0BA000000BkuiyMAB;005F0000006F9DxIAK;005F0000007fMveIAE;;DOG DA IGREJINHA ALAMEDA LTDA;;;;TAGUATINGA CENTRO TAGUATINGA;;PM21;DOG DA IGREJINHA;;CSB 02 LOTES 01 04;12 DEZEMBRO;BRASILIA;BR;;48443385000198;;10428375.00;0121Y000001J66IQAS;a0AA0000005k9HBMAY;BRASILIA;BR;72015-901;DF;CSB 02 LOTES 01 04  TAGUATINGA CENTRO TAGUATINGA PM21;Pessoa Jurídica;;;;;0;(61)99165-4574;KAROKA1000@GMAIL.COM
UBERLANDIA;BR;38408-902;MG;AV JOAO NAVES DE AVILA 1331 SANTA MONICA 219 A;38408-902;0003992682;;43349670032;ISENTO;;00000000000000000000;;MG;;;Ativo;false;false;false;false;false;false;false;false;false;false;false;false;a0nF000000P34isIAB;a0xF000001OjABEIA3;a15F0000003QQaaIAG;a17F000000R17A6IAJ;a0CF000000OdDwCMAV;a0BA000000BkujWMAR;005F0000001wEcVIAU;005F0000007fBn0IAE;;NFG COMERCIO LTDA;;;;SANTA MONICA;;219 A;THE BBURGUERS CENTER SHOP UBERLANDI;;AV JOAO NAVES DE AVILA;12 DEZEMBRO;UBERLANDIA;BR;;46288737000152;1331;10428616.00;0121Y000001J66IQAS;a0AA0000005k9HBMAY;UBERLANDIA;BR;38408-902;MG;AV JOAO NAVES DE AVILA 1331 SANTA MONICA 219 A;Pessoa Jurídica;;;;;0;(11)98364-9396;THEBBURGERSBBTH326@GMAIL.COM
BRASILIA;BR;70305-901;DF;SCS QUADRA 5  ASA SUL A LOJA 12;70305-901;0003991955;;0811496500151;ISENTO;;00000000000000000000;;DF;;;Ativo;false;false;false;false;false;false;false;false;false;false;false;false;a0nF000000P34isIAB;a0xF000001OjABMIA3;a15F0000003QQaaIAG;a17F000000R17A6IAJ;a0CF000000OdDwCMAV;a0BA000000BkuiyMAB;005F0000005EOk7IAG;005F0000007fMveIAE;;ABREU COMERCIO VAREJISTA DE ALIMENT;;;;ASA SUL;;A LOJA 12;LABAREDAS GRILL;;SCS QUADRA 5;12 DEZEMBRO;BRASILIA;BR;;45234723000193;;10428112.00;0121Y000001J66IQAS;a0AA0000005k9HBMAY;BRASILIA;BR;70305-901;DF;SCS QUADRA 5  ASA SUL A LOJA 12;Pessoa Jurídica;;;;;0;(61)99200-5684;RESTAURANTELABAREDASGRILL@GMAIL.COM
GOIANIA;BR;74435-300;GO;AV ANHANGUERA QD 582 LT 01  AEROVIARIO 1225;74435-300;0003992188;;109183045;ISENTO;;00000000000000000000;;GO;;;Ativo;false;false;false;false;false;false;false;false;false;false;false;false;a0nF000000P34isIAB;a0xF000001OjABOIA3;a15F0000003QQaaIAG;a17F000000R17A6IAJ;a0CF000000OdDwCMAV;a0BA000000BkuivMAB;005F0000001vqtBIAQ;005F0000002kVtrIAE;;TAVARES RESTAURANTE LTDA;;;;AEROVIARIO;;1225;MAX SUSHI CERRADO;;AV ANHANGUERA QD 582 LT 01;12 DEZEMBRO;GOIANIA;BR;;46057762000125;;10428262.00;0121Y000001J66IQAS;a0AA0000005k9HBMAY;GOIANIA;BR;74435-300;GO;AV ANHANGUERA QD 582 LT 01  AEROVIARIO 1225;Pessoa Jurídica;;;;;0;(62)98294-0099;DANIELTP.ENG@GMAIL.COM
DUQUE DE CAXIAS;BR;25085-008;RJ;RODOVIA WASHINGTON LUIZ 2895 PARQUE DUQUE 303-G;25085-008;0003992386;;12640749;ISENTO;;00000000000000000000;;RJ;;;Ativo;false;false;false;false;false;false;false;false;false;false;false;false;a0nF000000P34isIAB;a0xF000001OjAB8IAN;a15F0000003QQaaIAG;a17F000000R17A6IAJ;a0CF000000OdDwCMAV;a0BA000000Bkuk9MAB;005F0000001xi6HIAQ;0052A000008NCOuQAO;;ZAMP S A;;;;PARQUE DUQUE;;303-G;PLK CAXIAS SHOP;;RODOVIA WASHINGTON LUIZ;12 DEZEMBRO;DUQUE DE CAXIAS;BR;;13574594129121;2895;10428394.00;0121Y000001J66IQAS;a0AA0000005k9HBMAY;DUQUE DE CAXIAS;BR;25085-008;RJ;RODOVIA WASHINGTON LUIZ 2895 PARQUE DUQUE 303-G;Pessoa Jurídica;;;;;0;(11)23970-0320;MARCELO.CARVALHO@ZAMP.COM.BR
SALVADOR;BR;40024-081;BA;AVENIDA JOSE JOAQUIM SEABRA 151 BARROQUINHA A BOX 02;40024-081;0003950315;;ISENTO;ISENTO;;00000000000000000000;;BA;;;Ativo;false;false;false;false;false;false;false;false;false;false;false;false;a0nF000000P34isIAB;a0xF000001OjABUIA3;a15F0000003QQaaIAG;a17F000000R17A6IAJ;a0CF000000OdDwCMAV;a0BA000000BkujLMAR;0051Y00000AZ3dbQAD;0051Y00000BejWHQAZ;;;;;;BARROQUINHA;;A BOX 02;DERIVALDO DE SANTANA;;AVENIDA JOSE JOAQUIM SEABRA;07 JULHO;SALVADOR;BR;;05684803504;151;10397587.00;0121Y000001J66IQAS;a0AA0000005k9HBMAY;SALVADOR;BR;40024-081;BA;AVENIDA JOSE JOAQUIM SEABRA 151 BARROQUINHA A BOX 02;Pessoa Física;;;;;0;(71)98759-5367;LUCIENEPUBLICIDADE820@GMAIL.COM
RIO DE JANEIRO;BR;22763-627;RJ;AVENIDA ISABEL DOMINGUES 300 GARDENIA AZUL 5 13;22763-627;0003989799;;11950329;ISENTO;;00000000000000000000;;RJ;;;Ativo;false;false;false;false;false;false;false;false;false;false;false;false;a0nF000000P34isIAB;a0xF000001OjAB8IAN;a15F0000003QQaaIAG;a17F000000R17A6IAJ;a0CF000000OdDwCMAV;a0BA000000Bkuk9MAB;0052A000008MokwQAC;0052A000008MokwQAC;;DECK MASSAS LTDA;;;;GARDENIA AZUL;;5 13;DECK MASSAS;;AVENIDA ISABEL DOMINGUES;12 DEZEMBRO;RIO DE JANEIRO;BR;;40415706000139;300;10426526.00;0121Y000001J66IQAS;a0AA0000005k9HBMAY;RIO DE JANEIRO;BR;22763-627;RJ;AVENIDA ISABEL DOMINGUES 300 GARDENIA AZUL 5 13;Pessoa Jurídica;;;;;0;(21)96404-9656;CAYORIBEIRO1993@GMAIL.COM
GOIANIA;BR;74055-045;GO;AVENIDA INDEPENDENCIA QD 140 LT 01 06 3392 SETOR CENTRAL PISO 2 AL2004;74055-045;0003989962;;109871960;ISENTO;;00000000000000000000;;GO;;;Ativo;false;false;false;false;false;false;false;false;false;false;false;false;a0nF000000P34isIAB;a0xF000001OjABOIA3;a15F0000003QQaaIAG;a17F000000R17A6IAJ;a0CF000000OdDwCMAV;a0BA000000BkuivMAB;005F0000003Sm2ZIAS;0054z000009OIhvAAG;;GIRA LC CINCO COMERCIO DE ALIMENTOS;;;;SETOR CENTRAL;;PISO 2 AL2004;GIRAFFAS;;AVENIDA INDEPENDENCIA QD 140 LT 01 06;12 DEZEMBRO;GOIANIA;BR;;48695299000172;3392;10426652.00;0121Y000001J66IQAS;a0AA0000005k9HBMAY;GOIANIA;BR;74055-045;GO;AVENIDA INDEPENDENCIA QD 140 LT 01 06 3392 SETOR CENTRAL PISO 2 AL2004;Pessoa Jurídica;;;;;0;(62)99211-9379;EVERSONBARBOSA007@HOTMAIL.COM
BRASILIA;BR;70770-100;DF;STN  ASA NORTE CONJ J T98/99;70770-100;0003991947;;0818398300139;ISENTO;;00000000000000000000;;DF;;;Ativo;false;false;false;false;false;false;false;false;false;false;false;false;a0nF000000P34isIAB;a0xF000001OjABMIA3;a15F0000003QQaaIAG;a17F000000R17A6IAJ;a0CF000000OdDwCMAV;a0BA000000BkuiyMAB;005F0000006F9DxIAK;005F0000007fMveIAE;;TAVERNA VIKING CHOPP E PARILLA LTDA;;;;ASA NORTE;;CONJ J T98/99;TAVERNA VIKINGS CHOPP E PARILLA;;STN;12 DEZEMBRO;BRASILIA;BR;;48889934000152;;10428105.00;0121Y000001J66IQAS;a0AA0000005k9HBMAY;BRASILIA;BR;70770-100;DF;STN  ASA NORTE CONJ J T98/99;Pessoa Jurídica;;;;;0;(61)99233-0918;VIKINGSPARKSUL@GMAIL.COM
GOIANIA;BR;74435-300;GO;AV ANHANGUERA QD 582 LT 01  AEROVIARIO PVMT 1 1201/1202;74435-300;0003992138;;109666780;ISENTO;;00000000000000000000;;GO;;;Ativo;false;false;false;false;false;false;false;false;false;false;false;false;a0nF000000P34isIAB;a0xF000001OjABOIA3;a15F0000003QQaaIAG;a17F000000R17A6IAJ;a0CF000000OdDwCMAV;a0BA000000BkuivMAB;005F0000001vqtBIAQ;005F0000002kVtrIAE;;ZAMP S A;;;;AEROVIARIO;;PVMT 1 1201/1202;FILIAL PLK SHOP CERRADO;;AV ANHANGUERA QD 582 LT 01;12 DEZEMBRO;GOIANIA;BR;;13574594128826;;10428232.00;0121Y000001J66IQAS;a0AA0000005k9HBMAY;GOIANIA;BR;74435-300;GO;AV ANHANGUERA QD 582 LT 01  AEROVIARIO PVMT 1 1201/1202;Pessoa Jurídica;;;;;0;(62)99834-2812;MARCELO.CARVALHO@ZAMP.COM.BR
CATALAO;BR;75709-140;GO;R JOCELIM GOMES PIRES 2300 NOSSA SENHORA DE FATIMA UNICO LJ 107/108;75709-140;0003989833;;109236343;ISENTO;;00000000000000000000;;GO;;;Ativo;false;false;false;false;false;false;false;false;false;false;false;false;a0nF000000P34isIAB;a0xF000001OjABEIA3;a15F0000003QQaaIAG;a17F000000R17A6IAJ;a0CF000000OdDwCMAV;a0BA000000BkujWMAR;005F0000001d3IjIAI;005F0000007fBn0IAE;;SPEED JACK BUTIQUIM E RESTAURANTE L;;;;NOSSA SENHORA DE FATIMA;;UNICO LJ 107/108;SPEED JACK BUTIQUIM;;R JOCELIM GOMES PIRES;12 DEZEMBRO;CATALAO;BR;;46247711000166;2300;10426561.00;0121Y000001J66IQAS;a0AA0000005k9HBMAY;CATALAO;BR;75709-140;GO;R JOCELIM GOMES PIRES 2300 NOSSA SENHORA DE FATIMA UNICO LJ 107/108;Pessoa Jurídica;;;;;0;(64)99284-0610;FINANCEIRO@GENERALSPEED.COM.BR
GOIANIA;BR;74055-045;GO;AVENIDA INDEPENDENCIA QD 140 LT 01 06 3392 SETOR CENTRAL PISO 2 AL2007A;74055-045;0003992181;;109949668;ISENTO;;00000000000000000000;;GO;;;Ativo;false;false;false;false;false;false;false;false;false;false;false;false;a0nF000000P34isIAB;a0xF000001OjABOIA3;a15F0000003QQaaIAG;a17F000000R17A6IAJ;a0CF000000OdDwCMAV;a0BA000000BkuivMAB;005F0000003Sm2ZIAS;0054z000009OIhvAAG;;JOHNS BISTRO E CAFE LTDA;;;;SETOR CENTRAL;;PISO 2 AL2007A;JHONS BRISTO;;AVENIDA INDEPENDENCIA QD 140 LT 01 06;12 DEZEMBRO;GOIANIA;BR;;46138373000205;3392;10428257.00;0121Y000001J66IQAS;a0AA0000005k9HBMAY;GOIANIA;BR;74055-045;GO;AVENIDA INDEPENDENCIA QD 140 LT 01 06 3392 SETOR CENTRAL PISO 2 AL2007A;Pessoa Jurídica;;;;;0;(62)98218-9798;JOAO.LUIZRSF@GMAIL.COM
UBERLANDIA;BR;38408-902;MG;AV JOAO NAVES DE AVILA 1331 SANTA MONICA 1 LOJA 233;38408-902;0003992672;;30204641594;ISENTO;;00000000000000000000;;MG;;;Ativo;false;false;false;false;false;false;false;false;false;false;false;false;a0nF000000P34isIAB;a0xF000001OjABEIA3;a15F0000003QQaaIAG;a17F000000R17A6IAJ;a0CF000000OdDwCMAV;a0BA000000BkujWMAR;005F0000001wEcVIAU;005F0000007fBn0IAE;;PIMENTA VERDE ALIMENTOS LTDA;;;;SANTA MONICA;;1 LOJA 233;PIMENTA VERDE ALIMENTOS LTDA;;AV JOAO NAVES DE AVILA;12 DEZEMBRO;UBERLANDIA;BR;;09060964027642;1331;10427963.00;0121Y000001J66IQAS;a0AA0000005k9HBMAY;UBERLANDIA;BR;38408-902;MG;AV JOAO NAVES DE AVILA 1331 SANTA MONICA 1 LOJA 233;Pessoa Jurídica;;;;;0;(11)99351-9380;WILLIAM.BARBOSA@INTERNATIONALMEALCOMPANY.COM
APARECIDA DE GOIANIA;BR;74915-515;GO;AV RIO VERDE QUADRA 102 104  VILA SAO TOMAZ UNICO LOJA 293;74915-515;0003990876;;109284518;ISENTO;;00000000000000000000;;GO;;;Ativo;false;false;false;false;false;false;false;false;false;false;false;false;a0nF000000P34isIAB;a0xF000001OjABOIA3;a15F0000003QQaaIAG;a17F000000R17A6IAJ;a0CF000000OdDwCMAV;a0BA000000BkuivMAB;005F0000001vq03IAA;005F0000001vq05IAA;;MIRANDA E HAAS ALIMENTOS LTDA;;;;VILA SAO TOMAZ;;UNICO LOJA 293;1890 BISTRO;;AV RIO VERDE QUADRA 102 104;12 DEZEMBRO;APARECIDA DE GOIANIA;BR;;46400559000100;;10427350.00;0121Y000001J66IQAS;a0AA0000005k9HBMAY;APARECIDA DE GOIANIA;BR;74915-515;GO;AV RIO VERDE QUADRA 102 104  VILA SAO TOMAZ UNICO LOJA 293;Pessoa Jurídica;;;;;0;(62)98290-8621;CONTATO@1890BISTRO.COM.BR
UBERLANDIA;BR;38411-159;MG;AVENIDA DOS VINHEDOS 71 MORADA DA COLINA UNICO LJ 302;38411-159;0003992685;;44926670070;ISENTO;;00000000000000000000;;MG;;;Ativo;false;false;false;false;false;false;false;false;false;false;false;false;a0nF000000P34isIAB;a0xF000001OjABEIA3;a15F0000003QQaaIAG;a17F000000R17A6IAJ;a0CF000000OdDwCMAV;a0BA000000BkujWMAR;005F0000007fBn0IAE;005F0000007fBn0IAE;;EMPERIA GASTROBAR LTDA;;;;MORADA DA COLINA;;UNICO LJ 302;EMPERIA GASTROBAR;;AVENIDA DOS VINHEDOS;12 DEZEMBRO;UBERLANDIA;BR;;48732115000105;71;10427967.00;0121Y000001J66IQAS;a0AA0000005k9HBMAY;UBERLANDIA;BR;38411-159;MG;AVENIDA DOS VINHEDOS 71 MORADA DA COLINA UNICO LJ 302;Pessoa Jurídica;;;;;0;(34)99111-9273;EMPEIRIABEERUDI@GMAIL.COM
BRASILIA;BR;72135-200;DF;Q QI 20  SETOR INDUSTRIAL TAGUATINGA A LOJA 05;72135-200;0003993952;;0818458600184;ISENTO;;00000000000000000000;;DF;;;Ativo;false;false;false;false;false;false;false;false;false;false;false;false;a0nF000000P34isIAB;a0xF000001OjABMIA3;a15F0000003QQaaIAG;a17F000000R17A6IAJ;a0CF000000OdDwCMAV;a0BA000000BkuiyMAB;;005F0000007fMveIAE;;48918729 JANDIRA PEREIRA DE BRITO;;;;SETOR INDUSTRIAL TAGUATINGA;;A LOJA 05;MODESTA PIZZA;;Q QI 20;01 JANEIRO;BRASILIA;BR;;48918729000178;;10429605.00;0121Y000001J66IQAS;a0AA0000005k9HBMAY;BRASILIA;BR;72135-200;DF;Q QI 20  SETOR INDUSTRIAL TAGUATINGA A LOJA 05;Pessoa Jurídica;;;;;0;(61)99869-8302;PIZZAMODESTA@GMAIL.COM
PINHAIS;BR;83320-180;PR;RUA REPUBLICA DOMINICANA 253 CENTRO UNICO LOJA 14B;83320-180;0003994071;;9097889195;ISENTO;;00000000000000000000;;PR;;;Ativo;false;false;false;false;false;false;false;false;false;false;false;false;a0nF000000P34isIAB;a0xF000001OjABGIA3;a15F0000003QQaaIAG;a17F000000R17A6IAJ;a0CF000000OdDwCMAV;a0BA000000BkujyMAB;0051Y00000AEiDrQAL;0054z00000AK6YJAA1;;VILADOMI COM DE BEBIDAS E SERVICOS;;;;CENTRO;;UNICO LOJA 14B;VILADOMI COM DE BEBIDAS E SERVICOS;;RUA REPUBLICA DOMINICANA;01 JANEIRO;PINHAIS;BR;;39898270000105;253;10429662.00;0121Y000001J66IQAS;a0AA0000005k9HBMAY;PINHAIS;BR;83320-180;PR;RUA REPUBLICA DOMINICANA 253 CENTRO UNICO LOJA 14B;Pessoa Jurídica;;;;;0;(41)99957-1749;VILA.DOMINICANAPINHAIS@GMAIL.COM
PEDREIRA;BR;13920-000;SP;AVENIDA JORGE DUPRAT FIGUEIREDO 137 VILA CANESSO 1 QUIOSQ BAR;13920-000;0003994483;;519057670118;ISENTO;;00000000000000000000;;SP;;;Ativo;false;false;false;false;false;false;false;false;false;false;false;false;a0nF000000P34isIAB;a0xF000001OjAB6IAN;a15F0000003QQaaIAG;a17F000000R17A6IAJ;a0CF000000OdDwCMAV;a0BA000000Bkul7MAB;0051Y00000AWcYBQA1;005F0000005NUCvIAO;;28535403 ANTENOR JOAO LUCIO FILHO;;;;VILA CANESSO;;1 QUIOSQ BAR;NOI QUIOSQUE BAR;;AVENIDA JORGE DUPRAT FIGUEIREDO;01 JANEIRO;PEDREIRA;BR;;28535403000154;137;10429964.00;0121Y000001J66IQAS;a0AA0000005k9HBMAY;PEDREIRA;BR;13920-000;SP;AVENIDA JORGE DUPRAT FIGUEIREDO 137 VILA CANESSO 1 QUIOSQ BAR;Pessoa Jurídica;;;;;0;(19)99914-8993;ANA_KROLBROGLIO@MSN.COM
GUARULHOS;BR;07034-000;SP;RODOVIA PRESIDENTE DUTRA KM 222.3  PORTO DA IGREJA UNICO LOJA B21;07034-000;0003995951;;796904598111;ISENTO;;00000000000000000000;;SP;;;Ativo;false;false;false;false;false;false;false;false;false;false;false;false;a0nF000000P34isIAB;a0xF000001OjAB0IAN;a15F0000003QQaaIAG;a17F000000R17A6IAJ;a0CF000000OdDwCMAV;a0BA000000Bkul4MAB;0052A000008rC8aQAE;005F0000006F0eaIAC;;A DIVINA COMIDA 2 RESTAURANTE LTDA;;;;PORTO DA IGREJA;;UNICO LOJA B21;A DIVINA COMIDA 2 RESTAURANTE LTDA;;RODOVIA PRESIDENTE DUTRA KM 222.3;01 JANEIRO;GUARULHOS;BR;;33697960000101;;10430908.00;0121Y000001J66IQAS;a0AA0000005k9HBMAY;GUARULHOS;BR;07034-000;SP;RODOVIA PRESIDENTE DUTRA KM 222.3  PORTO DA IGREJA UNICO LOJA B21;Pessoa Jurídica;;;;;0;(11)97205-6306;FERNANDOALMEIDA00@HOTMAIL.COM
BRASILIA;BR;71904-540;DF;RUA DAS CARNAUBAS LOTE 4  NORTE AGUAS CLARAS UNICO LOJA 2;71904-540;0003996221;;0804388300144;ISENTO;;00000000000000000000;;DF;;;Ativo;false;false;false;false;false;false;false;false;false;false;false;false;a0nF000000P34isIAB;a0xF000001OjABMIA3;a15F0000003QQaaIAG;a17F000000R17A6IAJ;a0CF000000OdDwCMAV;a0BA000000BkuiyMAB;0052A000009xwzgQAA;0054z0000096RlRAAU;;ATELIER DE MASSAS ARTESANAIS LUCAS;;;;NORTE AGUAS CLARAS;;UNICO LOJA 2;ATELIER DE MASSAS ARTESANAIS;;RUA DAS CARNAUBAS LOTE 4;01 JANEIRO;BRASILIA;BR;;41330993000147;;10431095.00;0121Y000001J66IQAS;a0AA0000005k9HBMAY;BRASILIA;BR;71904-540;DF;RUA DAS CARNAUBAS LOTE 4  NORTE AGUAS CLARAS UNICO LOJA 2;Pessoa Jurídica;;;;;0;(61)98635-1795;LUCAS.ADANATA@GMAIL.COM
BRASILIA;BR;71065-170;DF;Q QE 30 CONJUNTO Q CASA 2 GUARA II A LOJA 07;71065-170;0003995222;;0812415200177;ISENTO;;00000000000000000000;;DF;;;Ativo;false;false;false;false;false;false;false;false;false;false;false;false;a0nF000000P34isIAB;a0xF000001OjABMIA3;a15F0000003QQaaIAG;a17F000000R17A6IAJ;a0CF000000OdDwCMAV;a0BA000000BkuiyMAB;005F0000006F9DxIAK;;;PIZZA MALVADONA COMERCIO DE ALIMENT;;;;GUARA II;;A LOJA 07;PIZZA MALVADONNA;;Q QE 30 CONJUNTO Q CASA;01 JANEIRO;BRASILIA;BR;;45746326000109;2;10430343.00;0121Y000001J66IQAS;a0AA0000005k9HBMAY;BRASILIA;BR;71065-170;DF;Q QE 30 CONJUNTO Q CASA 2 GUARA II A LOJA 07;Pessoa Jurídica;;;;;0;(61)98117-4254;ANDREGARCIA87@GMAIL.COM
BRASILIA;BR;70077-000;DF;SDN CONJUNTO A  ASA NORTE PV 2 2042;70077-000;0003995299;;0815006500195;ISENTO;;00000000000000000000;;DF;;;Ativo;false;false;false;false;false;false;false;false;false;false;false;false;a0nF000000P34isIAB;a0xF000001OjABMIA3;a15F0000003QQaaIAG;a17F000000R17A6IAJ;a0CF000000OdDvlMAF;a0BA000000BkuiyMAB;005F0000006F9DxIAK;005F0000007fMveIAE;;MLI PRODUTOS ALIMENTICIOS LTDA;;;;ASA NORTE;;PV 2 2042;PEIXE NA REDE;;SDN CONJUNTO A;01 JANEIRO;BRASILIA;BR;;47081557000168;;10430398.00;0121Y000001J66IQAS;a0AA0000005k9HBMAY;BRASILIA;BR;70077-000;DF;SDN CONJUNTO A  ASA NORTE PV 2 2042;Pessoa Jurídica;;;;;0;(61)99262-4641;MAURICIOBRAZ04@HOTMAIL.COM
PETROPOLIS;BR;25730-731;RJ;ESTRADA UNIAO E INDUSTRIA 10035 ITAIPAVA UNICO LOJA 221;25730-731;0003995925;;87368181;ISENTO;;00000000000000000000;;RJ;;;Ativo;false;false;false;false;false;false;false;false;false;false;false;false;a0nF000000P34isIAB;a0xF000001OjAB8IAN;a15F0000003QQaaIAG;a17F000000R17A6IAJ;a0CF000000OdDwCMAV;a0BA000000Bkuk9MAB;;0052A000007utw2QAA;;OLIVEIRA E FILHOS CONFEITARIA ARTES;;;;ITAIPAVA;;UNICO LOJA 221;FLAVINHA REZENDE CONFEITARIA;;ESTRADA UNIAO E INDUSTRIA;01 JANEIRO;PETROPOLIS;BR;;27828240000135;10035;10430889.00;0121Y000001J66IQAS;a0AA0000005k9HBMAY;PETROPOLIS;BR;25730-731;RJ;ESTRADA UNIAO E INDUSTRIA 10035 ITAIPAVA UNICO LOJA 221;Pessoa Jurídica;;;;;0;(24)98862-4187;ESCOLAFLAVINHAREZENDE@GMAIL.COM
SALVADOR;BR;40024-081;BA;AVENIDA JOSE JOAQUIM SEABRA 151 BARROQUINHA A LJ 03;40024-081;0003830786;;ISENTO;ISENTO;;00000000000000000000;;BA;;;Ativo;false;false;false;false;false;false;false;false;false;false;false;false;a0nF000000P34isIAB;a0xF000001OjABUIA3;a15F0000003QQaaIAG;a17F000000R17A6IAJ;a0CF000000OdDwCMAV;a0BA000000BkujLMAR;0051Y00000AZ3dbQAD;0051Y00000AZ3dbQAD;;;;;;BARROQUINHA;;A LJ 03;SUANE SANTOS FONSECA;;AVENIDA JOSE JOAQUIM SEABRA;03 MARÇO;SALVADOR;BR;;02884176586;151;312070.00;0121Y000001J66IQAS;a0AA0000005k9HBMAY;SALVADOR;BR;40024-081;BA;AVENIDA JOSE JOAQUIM SEABRA 151 BARROQUINHA A LJ 03;Pessoa Física;;;;;0;(77)98134-2000;SUANE_FONSECA@OUTLOOK.COM
RIO DE JANEIRO;BR;22760-401;RJ;AV GEREMARIO DANTAS 1400 FREGUESIA UNICO SS110;22760-401;0003992198;;ISENTO;ISENTO;;00000000000000000000;;RJ;;;Ativo;false;false;false;false;false;false;false;false;false;false;false;false;a0nF000000P34isIAB;a0xF000001OjAB8IAN;a15F0000003QQaaIAG;a17F000000R17A6IAJ;a0CF000000OdDwCMAV;a0BA000000Bkuk9MAB;0052A000007uwcyQAA;0052A000007uwcyQAA;;48.919.268 MARCELA COSTA DO NASCIME;;;;FREGUESIA;;UNICO SS110;MARCELA DELIVERY;;AV GEREMARIO DANTAS;12 DEZEMBRO;RIO DE JANEIRO;BR;;48919268000158;1400;10428268.00;0121Y000001J66IQAS;a0AA0000005k9HBMAY;RIO DE JANEIRO;BR;22760-401;RJ;AV GEREMARIO DANTAS 1400 FREGUESIA UNICO SS110;Pessoa Jurídica;;;;;0;(21)99809-0970;MARCELA.COSTA3333@GMAIL.COM
BRASILIA;BR;70343-500;DF;CLS 104  ASA SUL A LJ 3 E 9;70343-500;0003993022;;0812431800191;ISENTO;;00000000000000000000;;DF;;;Ativo;false;false;false;false;false;false;false;false;false;false;false;false;a0nF000000P34isIAB;a0xF000001OjABMIA3;a15F0000003QQaaIAG;a17F000000R17A6IAJ;a0CF000000OdDwCMAV;a0BA000000BkuiyMAB;;;;FM ALIMENTACAO LTDA;;;;ASA SUL;;A LJ 3 E 9;MERCADO DEL PUERTO;;CLS 104;12 DEZEMBRO;BRASILIA;BR;;45755484000117;;10428889.00;0121Y000001J66IQAS;a0AA0000005k9HBMAY;BRASILIA;BR;70343-500;DF;CLS 104  ASA SUL A LJ 3 E 9;Pessoa Jurídica;;;;;0;(61)98143-4581;MERCADODELPUERTOBSB@GMAIL.COM
RIO DE JANEIRO;BR;22760-401;RJ;AV GEREMARIO DANTAS 1400 FREGUESIA UNICO SS108;22760-401;0003960148;;ISENTO;ISENTO;;00000000000000000000;;RJ;;;Ativo;false;false;false;false;false;false;false;false;false;false;false;false;a0nF000000P34isIAB;a0xF000001OjAB8IAN;a15F0000003QQaaIAG;a17F000000R17A6IAJ;a0CF000000OdDwCMAV;a0BA000000Bkuk9MAB;0052A000007uwcyQAA;0052A000007uwcyQAA;;;;;;FREGUESIA;;UNICO SS108;FLAVIO PAES LEME NEGREIRO;;AV GEREMARIO DANTAS;08 AGOSTO;RIO DE JANEIRO;BR;;04253360777;1400;10404501.00;0121Y000001J66IQAS;a0AA0000005k9HBMAY;RIO DE JANEIRO;BR;22760-401;RJ;AV GEREMARIO DANTAS 1400 FREGUESIA UNICO SS108;Pessoa Física;;;;;0;(21)97964-6665;FPAESLEMEN@GMAIL.COM
UBERLANDIA;BR;38411-159;MG;AVENIDA DOS VINHEDOS 71 MORADA DA COLINA UNICO LJ 215;38411-159;0003990950;;42307930086;ISENTO;;00000000000000000000;;MG;;;Ativo;false;false;false;false;false;false;false;false;false;false;false;false;a0nF000000P34isIAB;a0xF000001OjABEIA3;a15F0000003QQaaIAG;a17F000000R17A6IAJ;a0CF000000OdDwCMAV;a0BA000000BkujWMAR;005F0000007fBn0IAE;005F0000007fBn0IAE;;RESTAURANTE HAVAIANO LOHA POKE LTDA;;;;MORADA DA COLINA;;UNICO LJ 215;LOHA POKE;;AVENIDA DOS VINHEDOS;12 DEZEMBRO;UBERLANDIA;BR;;44701627000145;71;10427394.00;0121Y000001J66IQAS;a0AA0000005k9HBMAY;UBERLANDIA;BR;38411-159;MG;AVENIDA DOS VINHEDOS 71 MORADA DA COLINA UNICO LJ 215;Pessoa Jurídica;;;;;0;(34)99808-5533;LO.ALVARENGA@HOTMAIL.COM
PETROPOLIS;BR;25730-731;RJ;ESTRADA UNIAO E INDUSTRIA 10035 ITAIPAVA UNICO LOJA 110;25730-731;0001290024;;78862785;ISENTO;;00000000000000000000;;RJ;;;Ativo;false;false;false;false;false;false;false;false;false;false;false;false;a0nF000000P34isIAB;a0xF000001OjAB8IAN;a15F0000003QQaaIAG;a17F000000R17A6IAJ;a0CF000000OdDwCMAV;a0BA000000Bkuk9MAB;0052A000007utw2QAA;0052A000007utw2QAA;;LIBERTINO BAR E RESTAURANTE LTDA -;;;;ITAIPAVA;;UNICO LOJA 110;LIBERTINO BAR E RESTAURANTE LTDA -;;ESTRADA UNIAO E INDUSTRIA;;PETROPOLIS;BR;;10970257000120;10035;65631.00;0121Y000001J66IQAS;a0AA0000005k9HBMAY;PETROPOLIS;BR;25730-731;RJ;ESTRADA UNIAO E INDUSTRIA 10035 ITAIPAVA UNICO LOJA 110;Pessoa Jurídica;SUCESSÃO (TROCA TITULARIDADE);SUCEDIDO;;;0.067;(24)22225-5366;CONTATO@LIBERTINOCAFE.COM.BR
BRASILIA;BR;72145-450;DF;QNM 34 AREA ESPECIAL 1  TAGUATINGA NORTE 351B;72145-450;0003873557;;ISENTO;ISENTO;;00000000000000000000;;DF;;;Ativo;false;false;false;false;false;false;false;false;false;false;false;false;a0nF000000P34isIAB;a0xF000001OjABMIA3;a15F0000003QQaaIAG;a17F000000R17A6IAJ;a0CF000000OdDwCMAV;a0BA000000BkuiyMAB;;005F0000007fMveIAE;;;;;;TAGUATINGA NORTE;;351B;CARLOS MAGNO MENDONCA DE SA ARAUJO;;QNM 34 AREA ESPECIAL 1;08 AGOSTO;BRASILIA;BR;;02914764499;;343766.00;0121Y000001J66IQAS;a0AA0000005k9HBMAY;BRASILIA;BR;72145-450;DF;QNM 34 AREA ESPECIAL 1  TAGUATINGA NORTE 351B;Pessoa Física;;;;;0;(61)98103-6398;CARLOS.MAGNO@GMAIL.COM
BRASILIA;BR;72145-450;DF;QNM 34 AREA ESPECIAL 1  TAGUATINGA NORTE 351B;72145-450;0003873557;;ISENTO;ISENTO;;00000000000000000000;;DF;;;Ativo;false;false;false;false;false;false;false;false;false;false;false;false;a0nF000000P34isIAB;a0xF000001OjABMIA3;a15F0000003QQaaIAG;a17F000000R17A6IAJ;a0CF000000OdDwCMAV;a0BA000000BkuiyMAB;;005F0000007fMveIAE;;;;;;TAGUATINGA NORTE;;351B;CARLOS MAGNO MENDONCA DE SA ARAUJO;;QNM 34 AREA ESPECIAL 1;08 AGOSTO;BRASILIA;BR;;02914764499;;343766.00;0121Y000001J66IQAS;a0AA0000005k9HBMAY;BRASILIA;BR;72145-450;DF;QNM 34 AREA ESPECIAL 1  TAGUATINGA NORTE 351B;Pessoa Física;;;;;0;(61)98175-0595;CARLOS.MAGNO@GMAIL.COM
POUSO ALEGRE;BR;37556-140;MG;ROD JUSCELINO KUBITSCHEK 459 IPIRANGA 1 L90;37556-140;0003993533;;44922170014;ISENTO;;00000000000000000000;;MG;;;Ativo;false;false;false;false;false;false;false;false;false;false;false;false;a0nF000000P34isIAB;a0xF000001OjAB2IAN;a15F0000003QQaaIAG;a17F000000R17A6IAJ;a0CF000000OdDwCMAV;a0BA000000BkukrMAB;0052A000008MroDQAS;005F0000001vkhhIAA;;SR ESPETTO POUSO ALEGRE LTDA;;;;IPIRANGA;;1 L90;SR ESPETTO POUSO ALEGRE;;ROD JUSCELINO KUBITSCHEK;01 JANEIRO;POUSO ALEGRE;BR;;44101882000157;459;10429289.00;0121Y000001J66IQAS;a0AA0000005k9HBMAY;POUSO ALEGRE;BR;37556-140;MG;ROD JUSCELINO KUBITSCHEK 459 IPIRANGA 1 L90;Pessoa Jurídica;;;;;0;(67)98455-2030;POUSOALEGRE.MG@SRESPETTO.COM.BR
RIO DE JANEIRO;BR;22763-627;RJ;AVENIDA ISABEL DOMINGUES 300 GARDENIA AZUL 5 8;22763-627;0003863571;;ISENTO;ISENTO;;00000000000000000000;;RJ;;;Ativo;false;false;false;false;false;false;false;false;false;false;false;false;a0nF000000P34isIAB;a0xF000001OjAB8IAN;a15F0000003QQaaIAG;a17F000000R17A6IAJ;a0CF000000OdDwCMAV;a0BA000000Bkuk9MAB;0052A000008MokwQAC;0052A000008MokwQAC;;;;;;GARDENIA AZUL;;5 8;PAULO SERGIO GIANNINI BAIAO;;AVENIDA ISABEL DOMINGUES;07 JULHO;RIO DE JANEIRO;BR;;40591212749;300;336108.00;0121Y000001J66IQAS;a0AA0000005k9HBMAY;RIO DE JANEIRO;BR;22763-627;RJ;AVENIDA ISABEL DOMINGUES 300 GARDENIA AZUL 5 8;Pessoa Física;;;;;0;(31)99429-0025;DBAIAO@GMAIL.COM
ITAJAI;BR;88304-101;SC;RUA HEITOR LIBERATO 2150 SAO JOAO A LOJA 1;88304-101;0003873131;;ISENTO;ISENTO;;00000000000000000000;;SC;;;Ativo;false;false;false;false;false;false;false;false;false;false;false;false;a0nF000000P34isIAB;a0xF000001OjABGIA3;a15F0000003QQaaIAG;a17F000000R17A6IAJ;a0CF000000OdDwCMAV;a0BA000000Bkuk2MAB;005F0000001uQPJIA2;005F0000001uQP2IAM;;;;;;SAO JOAO;;A LOJA 1;EDER SANTOS DA LUZ;;RUA HEITOR LIBERATO;08 AGOSTO;ITAJAI;BR;;01432203061;2150;343494.00;0121Y000001J66IQAS;a0AA0000005k9HBMAY;ITAJAI;BR;88304-101;SC;RUA HEITOR LIBERATO 2150 SAO JOAO A LOJA 1;Pessoa Física;;;;;0;(47)98471-6429;ISTUDIO9BCFINANCEIRO@OUTLOOK.COM
BRASILIA;BR;71930-250;DF;RUA 33 LOTE 05  SUL AGUAS CLARAS UNICO 0013;71930-250;0003991567;;0809388800105;ISENTO;;00000000000000000000;;DF;;;Ativo;false;false;false;false;false;false;false;false;false;false;false;false;a0nF000000P34isIAB;a0xF000001OjABMIA3;a15F0000003QQaaIAG;a17F000000R17A6IAJ;a0CF000000OdDvwMAF;a0BA000000BkuiyMAB;0052A000009xwzgQAA;;;ANCORA BAR E RESTAURANTE LTDA;;;;SUL AGUAS CLARAS;;UNICO 0013;YASU;;RUA 33 LOTE 05;12 DEZEMBRO;BRASILIA;BR;;44085168000112;;10427836.00;0121Y000001J66IQAS;a0AA0000005k9HBMAY;BRASILIA;BR;71930-250;DF;RUA 33 LOTE 05  SUL AGUAS CLARAS UNICO 0013;Pessoa Jurídica;;;;;0;(61)99349-0787;RODRIGO.YASUSUSHI@GMAIL.COM
GUARULHOS;BR;07034-000;SP;RODOVIA PRESIDENTE DUTRA KM 222.3  PORTO DA IGREJA UNICO LOJA A05;07034-000;0003995952;;796901232117;ISENTO;;00000000000000000000;;SP;;;Ativo;false;false;false;false;false;false;false;false;false;false;false;false;a0nF000000P34isIAB;a0xF000001OjAB0IAN;a15F0000003QQaaIAG;a17F000000R17A6IAJ;a0CF000000OdDwCMAV;a0BA000000Bkul4MAB;0052A000008rC8aQAE;005F0000006F0eaIAC;;FAMI COMERCIO DE ALIMENTOS LTDA;;;;PORTO DA IGREJA;;UNICO LOJA A05;FAMI COMERCIO DE ALIMENTOS LTDA;;RODOVIA PRESIDENTE DUTRA KM 222.3;01 JANEIRO;GUARULHOS;BR;;33640203000100;;10430906.00;0121Y000001J66IQAS;a0AA0000005k9HBMAY;GUARULHOS;BR;07034-000;SP;RODOVIA PRESIDENTE DUTRA KM 222.3  PORTO DA IGREJA UNICO LOJA A05;Pessoa Jurídica;;;;;0;(11)99972-4181;FELIPPF@LIVE.COM
RIO DE JANEIRO;BR;22763-627;RJ;AVENIDA ISABEL DOMINGUES 300 GARDENIA AZUL 5 5;22763-627;0003991196;;12674260;ISENTO;;00000000000000000000;;RJ;;;Ativo;false;false;false;false;false;false;false;false;false;false;false;false;a0nF000000P34isIAB;a0xF000001OjAB8IAN;a15F0000003QQaaIAG;a17F000000R17A6IAJ;a0CF000000OdDwCMAV;a0BA000000Bkuk9MAB;0052A000008MokwQAC;0052A000008MokwQAC;;IAB SUCOS E LANCHES LTDA;;;;GARDENIA AZUL;;5 5;BIG BI SUCOS E LANCHES;;AVENIDA ISABEL DOMINGUES;12 DEZEMBRO;RIO DE JANEIRO;BR;;48629580000107;300;10427568.00;0121Y000001J66IQAS;a0AA0000005k9HBMAY;RIO DE JANEIRO;BR;22763-627;RJ;AVENIDA ISABEL DOMINGUES 300 GARDENIA AZUL 5 5;Pessoa Jurídica;;;;;0;(21)98187-3626;BIGBI.ANDRE@GMAIL.COM
GUARAPARI;BR;29200-430;ES;AVENIDA DAVINO MATTOS  CENTRO UNICO LOJA 33;29200-430;0003991476;;082400334;ISENTO;;00000000000000000000;;ES;;;Ativo;false;false;false;false;false;false;false;false;false;false;false;false;a0nF000000P34isIAB;a0xF000001OjABAIA3;a15F0000003QQaaIAG;a17F000000R17A6IAJ;a0CF000000OdDwCMAV;a0BA000000BkukgMAB;005A0000001bef8IAA;0052A000009xksxQAA;;IZAIAS E PAULO RESTAURANTE LTDA;;;;CENTRO;;UNICO LOJA 33;SORVETERIA SAUDE;;AVENIDA DAVINO MATTOS;12 DEZEMBRO;GUARAPARI;BR;;07611198000199;;10427781.00;0121Y000001J66IQAS;a0AA0000005k9HBMAY;GUARAPARI;BR;29200-430;ES;AVENIDA DAVINO MATTOS  CENTRO UNICO LOJA 33;Pessoa Jurídica;;;;;0;(27)99649-2086;FRANGUINHOSAUDE@GMAIL.COM
RIO DE JANEIRO;BR;22763-627;RJ;AVENIDA ISABEL DOMINGUES 300 GARDENIA AZUL 5 36;22763-627;0003989801;;12644140;ISENTO;;00000000000000000000;;RJ;;;Ativo;false;false;false;false;false;false;false;false;false;false;false;false;a0nF000000P34isIAB;a0xF000001OjAB8IAN;a15F0000003QQaaIAG;a17F000000R17A6IAJ;a0CF000000OdDwCMAV;a0BA000000Bkuk9MAB;0052A000008MokwQAC;0052A000008MokwQAC;;MAN ALIMENTOS LTDA;;;;GARDENIA AZUL;;5 36;UP LANCHES;;AVENIDA ISABEL DOMINGUES;12 DEZEMBRO;RIO DE JANEIRO;BR;;48336280000130;300;10426528.00;0121Y000001J66IQAS;a0AA0000005k9HBMAY;RIO DE JANEIRO;BR;22763-627;RJ;AVENIDA ISABEL DOMINGUES 300 GARDENIA AZUL 5 36;Pessoa Jurídica;;;;;0;(21)99159-5935;FVIANNARJ@GMAIL.COM
JUIZ DE FORA;BR;36025-160;MG;RUA MORAIS E CASTRO 300 ALTOS DOS PASSOS UNICO LOJA 106;36025-160;0003919101;;ISENTO;ISENTO;;00000000000000000000;;MG;;;Ativo;false;false;false;false;false;false;false;false;false;false;false;false;a0nF000000P34isIAB;a0xF000001OjABCIA3;a15F0000003QQaaIAG;a17F000000R17A6IAJ;a0CF000000OdDwCMAV;a0BA000000BkukEMAR;005F0000003WsygIAC;005F0000006lT12IAE;;;;;;ALTOS DOS PASSOS;;UNICO LOJA 106;GUSTAVO DE BARROS BATISTA;;RUA MORAIS E CASTRO;03 MARÇO;JUIZ DE FORA;BR;;09887037699;300;10377287.00;0121Y000001J66IQAS;a0AA0000005k9HBMAY;JUIZ DE FORA;BR;36025-160;MG;RUA MORAIS E CASTRO 300 ALTOS DOS PASSOS UNICO LOJA 106;Pessoa Física;;;;;0;(31)98711-2575;GUSTAVO.BATISTA@GRUPOGUIMA.COM.BR
BRASILIA;BR;70834-530;DF;CLN 402 BL C  ASA NORTE A 19 20 23;70834-530;0003991098;;0816968900183;ISENTO;;00000000000000000000;;DF;;;Ativo;false;false;false;false;false;false;false;false;false;false;false;false;a0nF000000P34isIAB;a0xF000001OjABMIA3;a15F0000003QQaaIAG;a17F000000R17A6IAJ;a0CF000000OdDwCMAV;a0BA000000BkuiyMAB;;005F0000001vqBbIAI;;TGL BAR E TABACARIA LTDA;;;;ASA NORTE;;A 19 20 23;SPOT BAR E BURGUERS;;CLN 402 BL C;12 DEZEMBRO;BRASILIA;BR;;48176574000141;;10427502.00;0121Y000001J66IQAS;a0AA0000005k9HBMAY;BRASILIA;BR;70834-530;DF;CLN 402 BL C  ASA NORTE A 19 20 23;Pessoa Jurídica;;;;;0;(61)98111-1998;SPOTBAR.CONTATO@GMAIL.COM
BRASILIA;BR;70237-500;DF;CLS 403  ASA SUL D 0028;70237-500;0003996244;;0816355100107;ISENTO;;00000000000000000000;;DF;;;Ativo;false;false;false;false;false;false;false;false;false;false;false;false;a0nF000000P34isIAB;a0xF000001OjABMIA3;a15F0000003QQaaIAG;a17F000000R17A6IAJ;a0CF000000OdDvoMAF;a0BA000000BkuiyMAB;;005F0000005sxotIAA;;MEIRE REIS BEAUTY LTDA;;;;ASA SUL;;D 0028;STUDIO MEIRE REIS;;CLS 403;01 JANEIRO;BRASILIA;BR;;47837512000170;;10431113.00;0121Y000001J66IQAS;a0AA0000005k9HBMAY;BRASILIA;BR;70237-500;DF;CLS 403  ASA SUL D 0028;Pessoa Jurídica;;;;;0;(61)99914-2854;MEIREREIS.ADM@GMAIL.COM
RIO DE JANEIRO;BR;22763-627;RJ;AVENIDA ISABEL DOMINGUES 300 GARDENIA AZUL 5 11;22763-627;0003993300;;12718144;ISENTO;;00000000000000000000;;RJ;;;Ativo;false;false;false;false;false;false;false;false;false;false;false;false;a0nF000000P34isIAB;a0xF000001OjAB8IAN;a15F0000003QQaaIAG;a17F000000R17A6IAJ;a0CF000000OdDwCMAV;a0BA000000Bkuk9MAB;0052A000008MokwQAC;0052A000008MokwQAC;;TREVITTA COMERCIO DE PROD ALIMENTIC;;;;GARDENIA AZUL;;5 11;TREVITTA FORNERIA FIT;;AVENIDA ISABEL DOMINGUES;01 JANEIRO;RIO DE JANEIRO;BR;;48597787000147;300;10429104.00;0121Y000001J66IQAS;a0AA0000005k9HBMAY;RIO DE JANEIRO;BR;22763-627;RJ;AVENIDA ISABEL DOMINGUES 300 GARDENIA AZUL 5 11;Pessoa Jurídica;;;;;0;(21)97180-5515;DEBORABRICHI@GMAIL.COM
BELO HORIZONTE;BR;30455-610;MG;AVENIDA PROFESSOR MARIO WERNECK 434 ESTORIL PAVMT 2 LJ 02;30455-610;0003991587;;30987110020;ISENTO;;00000000000000000000;;MG;;;Ativo;false;false;false;false;false;false;false;false;false;false;false;false;a0nF000000P34isIAB;a0xF000001OjABCIA3;a15F0000003QQaaIAG;a17F000000R17A6IAJ;a0CF000000OdDwCMAV;a0BA000000BkujYMAR;0052A000009xaLPQAY;005F0000002T0RiIAK;;ROK FOOD DELIVERY LTDA;;;;ESTORIL;;PAVMT 2 LJ 02;ROK FOOD DELIVERY LTDA;;AVENIDA PROFESSOR MARIO WERNECK;12 DEZEMBRO;BELO HORIZONTE;BR;;65698540000136;434;10427849.00;0121Y000001J66IQAS;a0AA0000005k9HBMAY;BELO HORIZONTE;BR;30455-610;MG;AVENIDA PROFESSOR MARIO WERNECK 434 ESTORIL PAVMT 2 LJ 02;Pessoa Jurídica;;;;;0;(31)99954-8343;PHILIPPE@ROKKON.COM.BR
SALVADOR;BR;40024-081;BA;AVENIDA JOSE JOAQUIM SEABRA 151 BARROQUINHA A LJ 01;40024-081;0003830782;;ISENTO;ISENTO;;00000000000000000000;;BA;;;Ativo;false;false;false;false;false;false;false;false;false;false;false;false;a0nF000000P34isIAB;a0xF000001OjABUIA3;a15F0000003QQaaIAG;a17F000000R17A6IAJ;a0CF000000OdDwCMAV;a0BA000000BkujLMAR;0051Y00000AZ3dbQAD;0051Y00000BejWHQAZ;;;;;;BARROQUINHA;;A LJ 01;JUCIARA CONCEICAO MATO GROSSO;;AVENIDA JOSE JOAQUIM SEABRA;03 MARÇO;SALVADOR;BR;;04824243548;151;312066.00;0121Y000001J66IQAS;a0AA0000005k9HBMAY;SALVADOR;BR;40024-081;BA;AVENIDA JOSE JOAQUIM SEABRA 151 BARROQUINHA A LJ 01;Pessoa Física;;;;;0;(71)98825-7516;JUSYY2011@HOTMAIL.COM
ARMACAO DOS BUZIOS;BR;28950-000;RJ;EST JOSE BENTO RIBEIRO DANTAS 2900 RASA 0005;28950-000;0003993529;;78377968;ISENTO;;00000000000000000000;;RJ;;;Ativo;false;false;false;false;false;false;false;false;false;false;false;false;a0nF000000P34isIAB;a0xF000001OjAB8IAN;a15F0000003QQaaIAG;a17F000000R17A6IAJ;a0CF000000OdDwCMAV;a0BA000000BkukZMAR;005F00000028axmIAA;0051Y00000AZBjcQAH;;CAPITU IN BUZIOS BAR REST E PIZZARI;;;;RASA;;0005;FARIAS RISTORANTE BAR;;EST JOSE BENTO RIBEIRO DANTAS;12 DEZEMBRO;ARMACAO DOS BUZIOS;BR;;04320759000102;2900;10429285.00;0121Y000001J66IQAS;a0AA0000005k9HBMAY;ARMACAO DOS BUZIOS;BR;28950-000;RJ;EST JOSE BENTO RIBEIRO DANTAS 2900 RASA 0005;Pessoa Jurídica;;;;;0;(22)99890-6284;TININHAFARIAS12@GMAIL.COM
CATALAO;BR;75709-140;GO;R JOCELIM GOMES PIRES 2300 NOSSA SENHORA DE FATIMA UNICO LOJA 116;75709-140;0003991083;;106930516;ISENTO;;00000000000000000000;;GO;;;Ativo;false;false;false;false;false;false;false;false;false;false;false;false;a0nF000000P34isIAB;a0xF000001OjABEIA3;a15F0000003QQaaIAG;a17F000000R17A6IAJ;a0CF000000OdDwCMAV;a0BA000000BkujWMAR;005F0000001d3IjIAI;005F0000007fBn0IAE;;KATANAS ALIMENTOS LTDA;;;;NOSSA SENHORA DE FATIMA;;UNICO LOJA 116;KATANAS ALIMENTOS;;R JOCELIM GOMES PIRES;12 DEZEMBRO;CATALAO;BR;;27676621000146;2300;10427496.00;0121Y000001J66IQAS;a0AA0000005k9HBMAY;CATALAO;BR;75709-140;GO;R JOCELIM GOMES PIRES 2300 NOSSA SENHORA DE FATIMA UNICO LOJA 116;Pessoa Jurídica;;;;;0;(64)98151-2277;KATANAS.SUSHI.YAKI@GMAIL.COM
BRASILIA;BR;71215-100;DF;SGCV SUL LOTE 22  ZONA INDUSTRIAL GUARA UNICO LJ 151/152;71215-100;0003995230;;0774591000316;ISENTO;;00000000000000000000;;DF;;;Ativo;false;false;false;false;false;false;false;false;false;false;false;false;a0nF000000P34isIAB;a0xF000001OjABMIA3;a15F0000003QQaaIAG;a17F000000R17A6IAJ;a0CF000000OdDwCMAV;a0BA000000BkuiyMAB;0052A000009xwzgQAA;005F0000001vqBbIAI;;CHICAGO PRIME PARRILLA LTDA;;;;ZONA INDUSTRIAL GUARA;;UNICO LJ 151/152;CHICAGO PRIME PARRILLA LTDA;;SGCV SUL LOTE 22;01 JANEIRO;BRASILIA;BR;;23792176000390;;10430350.00;0121Y000001J66IQAS;a0AA0000005k9HBMAY;BRASILIA;BR;71215-100;DF;SGCV SUL LOTE 22  ZONA INDUSTRIAL GUARA UNICO LJ 151/152;Pessoa Jurídica;;;;;0;(61)99315-8021;BSB.ANACAROLINA@GMAIL.COM
RIO DE JANEIRO;BR;22763-627;RJ;AVENIDA ISABEL DOMINGUES 300 GARDENIA AZUL 5 1;22763-627;0003857183;;ISENTO;ISENTO;;00000000000000000000;;RJ;;;Ativo;false;false;false;false;false;false;false;false;false;false;false;false;a0nF000000P34isIAB;a0xF000001OjAB8IAN;a15F0000003QQaaIAG;a17F000000R17A6IAJ;a0CF000000OdDwCMAV;a0BA000000Bkuk9MAB;0052A000007uwcyQAA;0052A000009JdcOQAS;;;;;;GARDENIA AZUL;;5 1;PEDRO HENRIQUE DE ANDRADE;;AVENIDA ISABEL DOMINGUES;06 JUNHO;RIO DE JANEIRO;BR;;09789193602;300;331574.00;0121Y000001J66IQAS;a0AA0000005k9HBMAY;RIO DE JANEIRO;BR;22763-627;RJ;AVENIDA ISABEL DOMINGUES 300 GARDENIA AZUL 5 1;Pessoa Física;;;;;0;(31)99429-0025;PEDROANDRADE@AMERICANBURGERDELIVERY.COM
RIO DE JANEIRO;BR;22763-627;RJ;AVENIDA ISABEL DOMINGUES 300 GARDENIA AZUL 5 10;22763-627;0003991201;;ISENTO;ISENTO;;00000000000000000000;;RJ;;;Ativo;false;false;false;false;false;false;false;false;false;false;false;false;a0nF000000P34isIAB;a0xF000001OjAB8IAN;a15F0000003QQaaIAG;a17F000000R17A6IAJ;a0CF000000OdDwCMAV;a0BA000000Bkuk9MAB;0052A000008MokwQAC;0052A000008MokwQAC;;40216745 FABIANA HOTTUM GUEDES;;;;GARDENIA AZUL;;5 10;40216745 FABIANA HOTTUM GUEDES;;AVENIDA ISABEL DOMINGUES;12 DEZEMBRO;RIO DE JANEIRO;BR;;40216745000107;300;10427571.00;0121Y000001J66IQAS;a0AA0000005k9HBMAY;RIO DE JANEIRO;BR;22763-627;RJ;AVENIDA ISABEL DOMINGUES 300 GARDENIA AZUL 5 10;Pessoa Jurídica;;;;;0;(21)98633-0730;FHOTTUM@HOTMAIL.COM
SALVADOR;BR;40024-081;BA;AVENIDA JOSE JOAQUIM SEABRA 151 BARROQUINHA A LJ 04;40024-081;0003833249;;ISENTO;ISENTO;;00000000000000000000;;BA;;;Ativo;false;false;false;false;false;false;false;false;false;false;false;false;a0nF000000P34isIAB;a0xF000001OjABUIA3;a15F0000003QQaaIAG;a17F000000R17A6IAJ;a0CF000000OdDwCMAV;a0BA000000BkujLMAR;0051Y00000AZ3dbQAD;0051Y00000BejWHQAZ;;;;;;BARROQUINHA;;A LJ 04;ATEMILSON BISPO DOS SANTOS;;AVENIDA JOSE JOAQUIM SEABRA;03 MARÇO;SALVADOR;BR;;60275634515;151;313851.00;0121Y000001J66IQAS;a0AA0000005k9HBMAY;SALVADOR;BR;40024-081;BA;AVENIDA JOSE JOAQUIM SEABRA 151 BARROQUINHA A LJ 04;Pessoa Física;;;;;0;(73)98847-6001;DEADUDA.SILVA@GMAIL.COM
BELO HORIZONTE;BR;30111-050;MG;PRACA RIO BRANCO 100 CENTRO LJ 310;30111-050;0003922399;;ISENTO;ISENTO;;00000000000000000000;;MG;;;Ativo;false;false;false;false;false;false;false;false;false;false;false;false;a0nF000000P34isIAB;a0xF000001OjABCIA3;a15F0000003QQaaIAG;a17F000000R17A6IAJ;a0CF000000OdDwCMAV;a0BA000000BkujYMAR;005F0000001d3IoIAI;005F0000001d3IoIAI;;;;;;CENTRO;;LJ 310;LEONARDO SAMPAIO CARDOSO;;PRACA RIO BRANCO;03 MARÇO;BELO HORIZONTE;BR;;01334431671;100;10379171.00;0121Y000001J66IQAS;a0AA0000005k9HBMAY;BELO HORIZONTE;BR;30111-050;MG;PRACA RIO BRANCO 100 CENTRO LJ 310;Pessoa Física;;;;;0;(31)99163-6254;EMPADASCENTRO@HOTMAIL.COM
PINHAIS;BR;83320-180;PR;RUA REPUBLICA DOMINICANA 253 CENTRO UNICO LOJA 3A;83320-180;0003994072;;9097595795;ISENTO;;00000000000000000000;;PR;;;Ativo;false;false;false;false;false;false;false;false;false;false;false;false;a0nF000000P34isIAB;a0xF000001OjABGIA3;a15F0000003QQaaIAG;a17F000000R17A6IAJ;a0CF000000OdDwCMAV;a0BA000000BkujyMAB;0051Y00000AEiDrQAL;0054z00000AK6YJAA1;;FERNANDES E ALMEIDA HAMBURGUERIA LT;;;;CENTRO;;UNICO LOJA 3A;SALAMANCA HAMBURGUERIA;;RUA REPUBLICA DOMINICANA;01 JANEIRO;PINHAIS;BR;;40646811000340;253;10429664.00;0121Y000001J66IQAS;a0AA0000005k9HBMAY;PINHAIS;BR;83320-180;PR;RUA REPUBLICA DOMINICANA 253 CENTRO UNICO LOJA 3A;Pessoa Jurídica;;;;;0;(41)98773-9797;SALAMANCA.CADORE@GMAIL.COM
BRASILIA;BR;70719-000;DF;SRTVN QD 702 CONJ P SL 3148  ASA NORTE LJ 27;70719-000;0003871171;;ISENTO;ISENTO;;00000000000000000000;;DF;;;Ativo;false;false;false;false;false;false;false;false;false;false;false;false;a0nF000000P34isIAB;a0xF000001OjABMIA3;a15F0000003QQaaIAG;a17F000000R17A6IAJ;a0CF000000OdDwCMAV;a0BA000000BkuiyMAB;;005F0000007fMveIAE;;;;;;ASA NORTE;;LJ 27;FRANCISCA DE FREITAS FERNANDES;;SRTVN QD 702 CONJ P SL 3148;08 AGOSTO;BRASILIA;BR;;87442027172;;342085.00;0121Y000001J66IQAS;a0AA0000005k9HBMAY;BRASILIA;BR;70719-000;DF;SRTVN QD 702 CONJ P SL 3148  ASA NORTE LJ 27;Pessoa Física;;;;;0;(61)98174-2375;FRAN.FERNANDES0511@GMAIL.COM
RIBEIRAO DAS NEVES;BR;33900-001;MG;AVENIDA DENISE CRISTINA ROCHA 857 GUADALAJARA JUSTINOPOLIS PISO 2 0213;33900-001;0003993428;;45093860050;ISENTO;;00000000000000000000;;MG;;;Ativo;false;false;false;false;false;false;false;false;false;false;false;false;a0nF000000P34isIAB;a0xF000001OjABCIA3;a15F0000003QQaaIAG;a17F000000R17A6IAJ;a0CF000000OdDwCMAV;a0BA000000BkujYMAR;005F0000003DY10IAG;0051Y000009Xil9QAC;;BEER GRILL ESPETERIA LTDA;;;;GUADALAJARA JUSTINOPOLIS;;PISO 2 0213;BEER GRILL ESPETERIA LTDA;;AVENIDA DENISE CRISTINA ROCHA;01 JANEIRO;RIBEIRAO DAS NEVES;BR;;48974624000136;857;10429199.00;0121Y000001J66IQAS;a0AA0000005k9HBMAY;RIBEIRAO DAS NEVES;BR;33900-001;MG;AVENIDA DENISE CRISTINA ROCHA 857 GUADALAJARA JUSTINOPOLIS PISO 2 0213;Pessoa Jurídica;;;;;0;(31)98322-1998;RPARDINI74@GMAIL.COM
BRASILIA;BR;71200-012;DF;TRECHO SIA TRECHO 1 LOTE 630 A 780  ZONA INDUSTRIAL GUARA BLC 3 LOJA 2;71200-012;0003991569;;0798893000162;ISENTO;;00000000000000000000;;DF;;;Ativo;false;false;false;false;false;false;false;false;false;false;false;false;a0nF000000P34isIAB;a0xF000001OjABMIA3;a15F0000003QQaaIAG;a17F000000R17A6IAJ;a0CF000000OdDwCMAV;a0BA000000BkuiyMAB;0052A000009xwzgQAA;005F0000001vqBbIAI;;LARISSA CRISTINA FRANCA DA SILVA 02;;;;ZONA INDUSTRIAL GUARA;;BLC 3 LOJA 2;COFFICE GO BRASILIA;;TRECHO SIA TRECHO 1 LOTE 630 A 780;12 DEZEMBRO;BRASILIA;BR;;37649325000100;;10427837.00;0121Y000001J66IQAS;a0AA0000005k9HBMAY;BRASILIA;BR;71200-012;DF;TRECHO SIA TRECHO 1 LOTE 630 A 780  ZONA INDUSTRIAL GUARA BLC 3 LOJA 2;Pessoa Jurídica;;;;;0;(61)98163-2601;ENILDODUMONT@GMAIL.COM
SALVADOR;BR;40155-330;BA;RUA DOUTOR RUBEM CHAVES 4 JARDIM APIPEMA A LJ 02;40155-330;0003810714;;ISENTO;ISENTO;;00000000000000000000;;BA;;;Ativo;false;false;false;false;false;false;false;false;false;false;false;false;a0nF000000P34isIAB;a0xF000001OjABUIA3;a15F0000003QQaaIAG;a17F000000R17A6IAJ;a0CF000000OdDwCMAV;a0BA000000BkujLMAR;0051Y00000AZ3dbQAD;0051Y00000BejWHQAZ;;;;;;JARDIM APIPEMA;;A LJ 02;IVANA MARIA SIMOES SILVA;;RUA DOUTOR RUBEM CHAVES;12 DEZEMBRO;SALVADOR;BR;;15752232520;4;297318.00;0121Y000001J66IQAS;a0AA0000005k9HBMAY;SALVADOR;BR;40155-330;BA;RUA DOUTOR RUBEM CHAVES 4 JARDIM APIPEMA A LJ 02;Pessoa Física;;;;;0;(71)99988-4709;IVANASIMOES4@HOTMAIL.COM
SALVADOR;BR;40155-330;BA;RUA DOUTOR RUBEM CHAVES 4 JARDIM APIPEMA A LJ 02;40155-330;0003810714;;ISENTO;ISENTO;;00000000000000000000;;BA;;;Ativo;false;false;false;false;false;false;false;false;false;false;false;false;a0nF000000P34isIAB;a0xF000001OjABUIA3;a15F0000003QQaaIAG;a17F000000R17A6IAJ;a0CF000000OdDwCMAV;a0BA000000BkujLMAR;0051Y00000AZ3dbQAD;0051Y00000BejWHQAZ;;;;;;JARDIM APIPEMA;;A LJ 02;IVANA MARIA SIMOES SILVA;;RUA DOUTOR RUBEM CHAVES;12 DEZEMBRO;SALVADOR;BR;;15752232520;4;297318.00;0121Y000001J66IQAS;a0AA0000005k9HBMAY;SALVADOR;BR;40155-330;BA;RUA DOUTOR RUBEM CHAVES 4 JARDIM APIPEMA A LJ 02;Pessoa Física;;;;;0;(71)98842-0111;IVANASIMOES4@HOTMAIL.COM
POUSO ALEGRE;BR;37556-140;MG;ROD JUSCELINO KUBITSCHEK 459 IPIRANGA 1 FF02;37556-140;0003991632;;40756900042;ISENTO;;00000000000000000000;;MG;;;Ativo;false;false;false;false;false;false;false;false;false;false;false;false;a0nF000000P34isIAB;a0xF000001OjAB2IAN;a15F0000003QQaaIAG;a17F000000R17A6IAJ;a0CF000000OdDwCMAV;a0BA000000BkukrMAB;0052A000008MroDQAS;005F0000001vkhhIAA;;MARFRIO COMIDA ASIATICA LTDA;;;;IPIRANGA;;1 FF02;MARFRIO COMIDA ASIATICA LTDA;;ROD JUSCELINO KUBITSCHEK;12 DEZEMBRO;POUSO ALEGRE;BR;;42399297000150;459;10427885.00;0121Y000001J66IQAS;a0AA0000005k9HBMAY;POUSO ALEGRE;BR;37556-140;MG;ROD JUSCELINO KUBITSCHEK 459 IPIRANGA 1 FF02;Pessoa Jurídica;;;;;0;(35)98401-0560;PRATO_FINO@HOTMAIL.COM
